{
  "type": "FeatureCollection",
  "features": [
    {
      "type": "Feature",
      "properties": {
        "norad_id": 40730,
        "name": "GPS BIIF-10 (PRN 08)",
        "group": "gps-ops",
        "lat": 40.486810655036756,
        "lon": -47.5867375366874,
        "alt_km": 19910.759581065777,
        "timestamp": "2025-12-23T18:59:32.227732+00:00",
        "meta_object_name": "GPS BIIF-10 (PRN 08)",
        "meta_object_id": "2015-033A",
        "meta_epoch": "2025-12-21T17:23:51.616608",
        "meta_mean_motion": 2.00565211,
        "meta_eccentricity": 0.01114778,
        "meta_inclination": 54.1229,
        "meta_ra_of_asc_node": 274.4032,
        "meta_arg_of_pericenter": 27.0282,
        "meta_mean_anomaly": 333.5929,
        "meta_ephemeris_type": 0,
        "meta_classification_type": "U",
        "meta_norad_cat_id": 40730,
        "meta_element_set_no": 999,
        "meta_rev_at_epoch": 7643,
        "meta_bstar": 0,
        "meta_mean_motion_dot": -1.3e-07,
        "meta_mean_motion_ddot": 0,
        "tle_line1": "1 40730U 15033A   25355.72490297 -.00000013  00000+0  00000+0 0  9999",
        "tle_line2": "2 40730  54.1229 274.4032 0111477  27.0282 333.5929  2.00565211 76439"
      },
      "geometry": {
        "type": "Point",
        "coordinates": [
          -47.5867375366874,
          40.486810655036756
        ]
      }
    },
    {
      "type": "Feature",
      "properties": {
        "norad_id": 41019,
        "name": "GPS BIIF-11 (PRN 10)",
        "group": "gps-ops",
        "lat": 7.584524254095542,
        "lon": 42.58431011696289,
        "alt_km": 20402.12634060844,
        "timestamp": "2025-12-23T18:59:32.227742+00:00",
        "meta_object_name": "GPS BIIF-11 (PRN 10)",
        "meta_object_id": "2015-062A",
        "meta_epoch": "2025-12-22T06:47:19.515264",
        "meta_mean_motion": 2.00567132,
        "meta_eccentricity": 0.01110491,
        "meta_inclination": 56.8391,
        "meta_ra_of_asc_node": 37.6333,
        "meta_arg_of_pericenter": 230.1993,
        "meta_mean_anomaly": 128.8844,
        "meta_ephemeris_type": 0,
        "meta_classification_type": "U",
        "meta_norad_cat_id": 41019,
        "meta_element_set_no": 999,
        "meta_rev_at_epoch": 7428,
        "meta_bstar": 0,
        "meta_mean_motion_dot": -4.9e-07,
        "meta_mean_motion_ddot": 0,
        "tle_line1": "1 41019U 15062A   25356.28286476 -.00000049  00000+0  00000+0 0  9995",
        "tle_line2": "2 41019  56.8391  37.6333 0111049 230.1993 128.8844  2.00567132 74289"
      },
      "geometry": {
        "type": "Point",
        "coordinates": [
          42.58431011696289,
          7.584524254095542
        ]
      }
    },
    {
      "type": "Feature",
      "properties": {
        "norad_id": 41328,
        "name": "GPS BIIF-12 (PRN 32)",
        "group": "gps-ops",
        "lat": -39.48623878287437,
        "lon": 61.835412342685274,
        "alt_km": 20084.212130185995,
        "timestamp": "2025-12-23T18:59:32.227752+00:00",
        "meta_object_name": "GPS BIIF-12 (PRN 32)",
        "meta_object_id": "2016-007A",
        "meta_epoch": "2025-12-21T08:50:32.363232",
        "meta_mean_motion": 2.00560305,
        "meta_eccentricity": 0.00925842,
        "meta_inclination": 55.4109,
        "meta_ra_of_asc_node": 96.5146,
        "meta_arg_of_pericenter": 243.788,
        "meta_mean_anomaly": 115.2562,
        "meta_ephemeris_type": 0,
        "meta_classification_type": "U",
        "meta_norad_cat_id": 41328,
        "meta_element_set_no": 999,
        "meta_rev_at_epoch": 7227,
        "meta_bstar": 0,
        "meta_mean_motion_dot": -8e-08,
        "meta_mean_motion_ddot": 0,
        "tle_line1": "1 41328U 16007A   25355.36843013 -.00000008  00000+0  00000+0 0  9997",
        "tle_line2": "2 41328  55.4109  96.5146 0092584 243.7880 115.2562  2.00560305 72276"
      },
      "geometry": {
        "type": "Point",
        "coordinates": [
          61.835412342685274,
          -39.48623878287437
        ]
      }
    },
    {
      "type": "Feature",
      "properties": {
        "norad_id": 43873,
        "name": "GPS BIII-1  (PRN 04)",
        "group": "gps-ops",
        "lat": -18.76575466057507,
        "lon": -67.42985233348102,
        "alt_km": 20086.578992332874,
        "timestamp": "2025-12-23T18:59:32.227762+00:00",
        "meta_object_name": "GPS BIII-1  (PRN 04)",
        "meta_object_id": "2018-109A",
        "meta_epoch": "2025-12-21T18:06:33.031872",
        "meta_mean_motion": 2.00553985,
        "meta_eccentricity": 0.00375944,
        "meta_inclination": 55.5715,
        "meta_ra_of_asc_node": 99.1915,
        "meta_arg_of_pericenter": 195.3805,
        "meta_mean_anomaly": 336.8667,
        "meta_ephemeris_type": 0,
        "meta_classification_type": "U",
        "meta_norad_cat_id": 43873,
        "meta_element_set_no": 999,
        "meta_rev_at_epoch": 5151,
        "meta_bstar": 0,
        "meta_mean_motion_dot": -1e-08,
        "meta_mean_motion_ddot": 0,
        "tle_line1": "1 43873U 18109A   25355.75454898 -.00000001  00000+0  00000+0 0  9994",
        "tle_line2": "2 43873  55.5715  99.1915 0037594 195.3805 336.8667  2.00553985 51516"
      },
      "geometry": {
        "type": "Point",
        "coordinates": [
          -67.42985233348102,
          -18.76575466057507
        ]
      }
    },
    {
      "type": "Feature",
      "properties": {
        "norad_id": 44506,
        "name": "GPS BIII-2  (PRN 18)",
        "group": "gps-ops",
        "lat": 54.535342648976176,
        "lon": 84.90356789938514,
        "alt_km": 20198.537478761726,
        "timestamp": "2025-12-23T18:59:32.227772+00:00",
        "meta_object_name": "GPS BIII-2  (PRN 18)",
        "meta_object_id": "2019-056A",
        "meta_epoch": "2025-12-23T03:47:40.057728",
        "meta_mean_motion": 2.00566586,
        "meta_eccentricity": 0.0057745,
        "meta_inclination": 55.7177,
        "meta_ra_of_asc_node": 338.1397,
        "meta_arg_of_pericenter": 198.5953,
        "meta_mean_anomaly": 164.4501,
        "meta_ephemeris_type": 0,
        "meta_classification_type": "U",
        "meta_norad_cat_id": 44506,
        "meta_element_set_no": 999,
        "meta_rev_at_epoch": 4654,
        "meta_bstar": 0,
        "meta_mean_motion_dot": -6.4e-07,
        "meta_mean_motion_ddot": 0,
        "tle_line1": "1 44506U 19056A   25357.15810252 -.00000064  00000+0  00000+0 0  9995",
        "tle_line2": "2 44506  55.7177 338.1397 0057745 198.5953 164.4501  2.00566586 46543"
      },
      "geometry": {
        "type": "Point",
        "coordinates": [
          84.90356789938514,
          54.535342648976176
        ]
      }
    },
    {
      "type": "Feature",
      "properties": {
        "norad_id": 45854,
        "name": "GPS BIII-3  (PRN 23)",
        "group": "gps-ops",
        "lat": 35.319327213937456,
        "lon": 63.68464806088642,
        "alt_km": 20329.372316547415,
        "timestamp": "2025-12-23T18:59:32.227783+00:00",
        "meta_object_name": "GPS BIII-3  (PRN 23)",
        "meta_object_id": "2020-041A",
        "meta_epoch": "2025-12-23T05:38:15.042912",
        "meta_mean_motion": 2.00561767,
        "meta_eccentricity": 0.00606523,
        "meta_inclination": 56.5539,
        "meta_ra_of_asc_node": 35.7774,
        "meta_arg_of_pericenter": 203.7074,
        "meta_mean_anomaly": 158.6734,
        "meta_ephemeris_type": 0,
        "meta_classification_type": "U",
        "meta_norad_cat_id": 45854,
        "meta_element_set_no": 999,
        "meta_rev_at_epoch": 4051,
        "meta_bstar": 0,
        "meta_mean_motion_dot": -5e-07,
        "meta_mean_motion_ddot": 0,
        "tle_line1": "1 45854U 20041A   25357.23489633 -.00000050  00000+0  00000+0 0  9997",
        "tle_line2": "2 45854  56.5539  35.7774 0060652 203.7074 158.6734  2.00561767 40514"
      },
      "geometry": {
        "type": "Point",
        "coordinates": [
          63.68464806088642,
          35.319327213937456
        ]
      }
    },
    {
      "type": "Feature",
      "properties": {
        "norad_id": 46826,
        "name": "GPS BIII-4  (PRN 14)",
        "group": "gps-ops",
        "lat": 12.458765535681696,
        "lon": -132.8557720898297,
        "alt_km": 20351.102223677546,
        "timestamp": "2025-12-23T18:59:32.227793+00:00",
        "meta_object_name": "GPS BIII-4  (PRN 14)",
        "meta_object_id": "2020-078A",
        "meta_epoch": "2025-12-16T01:06:13.902336",
        "meta_mean_motion": 2.00566891,
        "meta_eccentricity": 0.0064755,
        "meta_inclination": 54.0145,
        "meta_ra_of_asc_node": 218.2068,
        "meta_arg_of_pericenter": 203.3828,
        "meta_mean_anomaly": 339.3936,
        "meta_ephemeris_type": 0,
        "meta_classification_type": "U",
        "meta_norad_cat_id": 46826,
        "meta_element_set_no": 999,
        "meta_rev_at_epoch": 3783,
        "meta_bstar": 0,
        "meta_mean_motion_dot": 6.7e-07,
        "meta_mean_motion_ddot": 0,
        "tle_line1": "1 46826U 20078A   25350.04599424  .00000067  00000+0  00000+0 0  9996",
        "tle_line2": "2 46826  54.0145 218.2068 0064755 203.3828 339.3936  2.00566891 37831"
      },
      "geometry": {
        "type": "Point",
        "coordinates": [
          -132.8557720898297,
          12.458765535681696
        ]
      }
    }
  ]
}